TRANSPORTER-12 OBJECT BT
1 62674U 25009BT  26068.71416991  .00013824  00000+0  51029-3 0  9998
2 62674  97.4094 151.5992 0003682 313.5044  46.5889 15.27872239121360
STARLINK-36488          
1 67306U 26002B   26068.41525493  .00036487  00000+0  13291-2 0  9992
2 67306  43.0006 327.1045 0000433 359.2069   0.8782 15.27575874 11034
